NORAD_CAT_ID,OBJECT_NAME,OBJECT_TYPE,EPOCH,MEAN_MOTION,ECCENTRICITY,INCLINATION,RA_OF_ASC_NODE,ARG_OF_PERICENTER,MEAN_ANOMALY,BSTAR,MEAN_MOTION_DOT,MEAN_MOTION_DDOT,TLE_LINE0,TLE_LINE1,TLE_LINE2,SEMIMAJOR_AXIS,PERIOD,APOGEE,PERIGEE,DECAYED
51115.0,STARLINK-3397,PAYLOAD,2022-08-04 16:04:42,15.08833542,0.0001888,53.2164,63.4856,71.7739,288.3459,2.5459e-05,1.17e-06,0.0,0 STARLINK-3397,1 51115U 22005M   22216.66993702  .00000117  00000-0  25459-4 0  9995,2 51115  53.2164  63.4856 0001888  71.7739 288.3459 15.08833542 30659,6917.9,95.438,541.071,538.4590000000002,0.0
51115.0,STARLINK-3397,PAYLOAD,2022-08-05 09:33:56,15.08842715,0.0001758,53.2172,60.2153,68.7105,291.4074,6.3127e-05,7.17e-06,0.0,0 STARLINK-3397,1 51115U 22005M   22217.39857127  .00000717  00000-0  63127-4 0  9996,2 51115  53.2172  60.2153 0001758  68.7105 291.4074 15.08842715 30764,6917.871999999999,95.437,540.953,538.521,0.0
51115.0,STARLINK-3397,PAYLOAD,2022-08-05 20:41:36,15.08894146,0.0001573,53.2169,58.1333,82.7133,277.4038,-0.00061798,-0.00010124,0.0,0 STARLINK-3397,1 51115U 22005M   22217.86222616 -.00010124  00000-0 -61798-3 0  9993,2 51115  53.2169  58.1333 0001573  82.7133 277.4038 15.08894146 31948,6917.715,95.434,540.668,538.492,0.0
51115.0,STARLINK-3397,PAYLOAD,2022-08-06 11:00:07,15.08834705,0.0001673,53.2171,55.4572,69.9742,290.143,6.8897e-05,8.08e-06,0.0,0 STARLINK-3397,1 51115U 22005M   22218.45841771  .00000808  00000-0  68897-4 0  9992,2 51115  53.2171  55.4572 0001673  69.9742 290.1430 15.08834705 32034,6917.897,95.438,540.919,538.604,0.0
51115.0,STARLINK-3397,PAYLOAD,2022-08-06 12:35:30,15.08835149,0.0001674,53.2171,55.1598,70.0094,290.1078,7.0838e-05,8.39e-06,0.0,0 STARLINK-3397,1 51115U 22005M   22218.52465758  .00000839  00000-0  70838-4 0  9999,2 51115  53.2171  55.1598 0001674  70.0094 290.1078 15.08835149 30931,6917.895,95.438,540.918,538.602,0.0
51115.0,STARLINK-3397,PAYLOAD,2022-08-06 15:46:16,15.08835882,0.0001681,53.2171,54.5649,69.9783,290.139,7.387600000000001e-05,8.88e-06,0.0,0 STARLINK-3397,1 51115U 22005M   22218.65713746  .00000888  00000-0  73876-4 0  9995,2 51115  53.2171  54.5649 0001681  69.9783 290.1390 15.08835882 30954,6917.893,95.438,540.9209999999998,538.595,0.0
51115.0,STARLINK-3397,PAYLOAD,2022-08-07 09:15:30,15.08843548,0.0001653,53.2173,51.2941,69.5955,290.5215,8.434399999999999e-05,1.055e-05,0.0,0 STARLINK-3397,1 51115U 22005M   22219.38577292  .00001055  00000-0  84344-4 0  9999,2 51115  53.2173  51.2941 0001653  69.5955 290.5215 15.08843548 32175,6917.87,95.437,540.878,538.591,0.0
51115.0,STARLINK-3397,PAYLOAD,2022-08-07 12:26:16,15.08848514,0.0001663,53.2172,50.6994,69.4658,290.6512,6.9612e-05,8.2e-06,0.0,0 STARLINK-3397,1 51115U 22005M   22219.51825026  .00000820  00000-0  69612-4 0  9995,2 51115  53.2172  50.6994 0001663  69.4658 290.6512 15.08848514 31083,6917.854,95.437,540.87,538.569,0.0
51115.0,STARLINK-3397,PAYLOAD,2022-08-07 20:23:12,15.08851951,0.0001679,53.2172,49.2123,69.5898,290.5274,9.369e-05,1.204e-05,0.0,0 STARLINK-3397,1 51115U 22005M   22219.84944604  .00001204  00000-0  93690-4 0  9995,2 51115  53.2172  49.2123 0001679  69.5898 290.5274 15.08851951 31134,6917.844,95.437,540.87,538.547,0.0
51115.0,STARLINK-3397,PAYLOAD,2022-08-08 12:17:04,15.08840239,0.0001681,53.2171,46.2382,69.8704,290.2469,0.00011074,1.475e-05,0.0,0 STARLINK-3397,1 51115U 22005M   22220.51185322  .00001475  00000-0  11074-3 0  9990,2 51115  53.2171  46.2382 0001681  69.8704 290.2469 15.08840239 32343,6917.88,95.438,540.908,538.582,0.0
51115.0,STARLINK-3397,PAYLOAD,2022-08-08 15:27:50,15.08843158,0.000168,53.2171,45.6434,70.0428,290.0745,0.0001348,1.858e-05,0.0,0 STARLINK-3397,1 51115U 22005M   22220.64433114  .00001858  00000-0  13480-3 0  9997,2 51115  53.2171  45.6434 0001680  70.0428 290.0745 15.08843158 31257,6917.871,95.437,540.898,538.5740000000002,0.0
51115.0,STARLINK-3397,PAYLOAD,2022-08-09 07:21:40,15.08852803,0.0001662,53.2171,42.6699,69.6863,290.4307,0.00015173,2.128e-05,0.0,0 STARLINK-3397,1 51115U 22005M   22221.30672249  .00002128  00000-0  15173-3 0  9997,2 51115  53.2171  42.6699 0001662  69.6863 290.4307 15.08852803 32463,6917.840999999999,95.437,540.856,538.557,0.0
51115.0,STARLINK-3397,PAYLOAD,2022-08-09 15:18:37,15.08843901,0.0001688,53.2162,41.1831,68.3434,291.7738,6.9591e-05,8.2e-06,0.0,0 STARLINK-3397,1 51115U 22005M   22221.63792923  .00000820  00000-0  69591-4 0  9996,2 51115  53.2162  41.1831 0001688  68.3434 291.7738 15.08843901 32510,6917.868,95.437,540.901,538.566,0.0
51115.0,STARLINK-3397,PAYLOAD,2022-08-09 21:40:10,15.08835289,0.0001636999999999,53.2165,39.994,68.3558,291.7609,-5.8874e-05,-1.225e-05,0.0,0 STARLINK-3397,1 51115U 22005M   22221.90289389 -.00001225  00000-0 -58874-4 0  9997,2 51115  53.2165  39.9940 0001637  68.3558 291.7609 15.08835289 32551,6917.895,95.438,540.8919999999998,538.627,0.0
51115.0,STARLINK-3397,PAYLOAD,2022-08-10 11:58:38,15.08829588,0.0001837,53.217,37.3203,43.4246,316.6891,-7.9329e-05,-1.55e-05,0.0,0 STARLINK-3397,1 51115U 22005M   22222.49905873 -.00001550  00000-0 -79329-4 0  9994,2 51115  53.2170  37.3203 0001837  43.4246 316.6891 15.08829588 31533,6917.9119999999975,95.438,541.048,538.506,0.0
51115.0,STARLINK-3397,PAYLOAD,2022-08-10 15:09:24,15.08822988,0.0001506999999999,53.2163,36.7226,66.6232,293.4918,-0.00025154,-4.287e-05,0.0,0 STARLINK-3397,1 51115U 22005M   22222.63153844 -.00004287  00000-0 -25154-3 0  9999,2 51115  53.2163  36.7226 0001507  66.6232 293.4918 15.08822988 31550,6917.932,95.439,540.84,538.755,0.0
51115.0,STARLINK-3397,PAYLOAD,2022-08-11 11:49:26,15.08828424,0.000149,53.2165,32.8563,71.2304,288.8849,5.4388e-05,5.77e-06,0.0,0 STARLINK-3397,1 51115U 22005M   22223.49266758  .00000577  00000-0  54388-4 0  9991,2 51115  53.2165  32.8563 0001490  71.2304 288.8849 15.08828424 31682,6917.916,95.438,540.812,538.75,0.0
51115.0,STARLINK-3397,PAYLOAD,2022-08-11 18:10:59,15.0883204,0.0001512,53.2166,31.6672,67.4416,292.6736,0.00012096,1.637e-05,0.0,0 STARLINK-3397,1 51115U 22005M   22223.75762856  .00001637  00000-0  12096-3 0  9997,2 51115  53.2166  31.6672 0001512  67.4416 292.6736 15.08832040 32832,6917.905,95.438,540.816,538.724,0.0
51115.0,STARLINK-3397,PAYLOAD,2022-08-12 11:40:13,15.08847485,0.0001561,53.2167,28.3958,65.68,294.4355,0.00058812,9.086e-05,0.0,0 STARLINK-3397,1 51115U 22005M   22224.48627005  .00009086  00000-0  58812-3 0  9996,2 51115  53.2167  28.3958 0001561  65.6800 294.4355 15.08847485 31839,6917.858,95.437,540.802,538.643,0.0
51115.0,STARLINK-3397,PAYLOAD,2022-08-12 18:01:46,15.08854149,0.0001549,53.2168,27.2063,65.7527,294.3627,0.00062652,9.701e-05,0.0,0 STARLINK-3397,1 51115U 22005M   22224.75122740  .00009701  00000-0  62652-3 0  9993,2 51115  53.2168  27.2063 0001549  65.7527 294.3627 15.08854149 32981,6917.837,95.437,540.774,538.631,0.0
51115.0,STARLINK-3397,PAYLOAD,2022-08-12 19:37:09,15.08856686,0.0001541999999999,53.2168,26.9089,65.2168,294.8984,0.00064655,0.00010021,0.0,0 STARLINK-3397,1 51115U 22005M   22224.81746649  .00010021  00000-0  64655-3 0  9992,2 51115  53.2168  26.9089 0001542  65.2168 294.8984 15.08856686 31881,6917.829000000002,95.436,540.761,538.628,0.0
51115.0,STARLINK-3397,PAYLOAD,2022-08-13 13:06:23,15.08843602,0.0001520999999999,53.2167,23.6378,65.60300000000001,294.512,0.00015333,2.153e-05,0.0,0 STARLINK-3397,1 51115U 22005M   22225.54610789  .00002153  00000-0  15333-3 0  9994,2 51115  53.2167  23.6378 0001521  65.6030 294.5120 15.08843602 31999,6917.869000000002,95.437,540.7869999999998,538.682,0.0
51115.0,STARLINK-3397,PAYLOAD,2022-08-13 17:52:32,15.08846595,0.0001506,53.2168,22.7458,65.3471,294.7678,0.00018069,2.589e-05,0.0,0 STARLINK-3397,1 51115U 22005M   22225.74482614  .00002589  00000-0  18069-3 0  9992,2 51115  53.2168  22.7458 0001506  65.3471 294.7678 15.08846595 32027,6917.86,95.437,540.7669999999998,538.683,0.0
51115.0,STARLINK-3397,PAYLOAD,2022-08-14 09:46:24,15.08846771,0.0001486,53.2169,19.772,64.732,295.3826,0.00012099,1.638e-05,0.0,0 STARLINK-3397,1 51115U 22005M   22226.40722433  .00001638  00000-0  12099-3 0  9993,2 51115  53.2169  19.7720 0001486  64.7320 295.3826 15.08846771 32128,6917.86,95.437,540.753,538.697,0.0
51115.0,STARLINK-3397,PAYLOAD,2022-08-14 17:43:19,15.08842173,0.0001489,53.2171,18.2853,64.0055,296.1091,2.7498000000000014e-05,1.5e-06,0.0,0 STARLINK-3397,1 51115U 22005M   22226.73842535  .00000150  00000-0  27498-4 0  9993,2 51115  53.2171  18.2853 0001489  64.0055 296.1091 15.08842173 32173,6917.874,95.437,540.769,538.7090000000002,0.0
51115.0,STARLINK-3397,PAYLOAD,2022-08-15 11:12:34,15.08834492,0.0001564999999999,53.2173,15.0147,66.2881,293.8275,-1.752e-05,-5.67e-06,0.0,0 STARLINK-3397,1 51115U 22005M   22227.46707026 -.00000567  00000-0 -17520-4 0  9998,2 51115  53.2173  15.0147 0001565  66.2881 293.8275 15.08834492 32287,6917.897,95.438,540.845,538.68,0.0
51115.0,STARLINK-3397,PAYLOAD,2022-08-15 15:58:44,15.08835726,0.0001543,53.2174,14.1224,68.0987,292.0169,5.0679e-06,-2.07e-06,0.0,0 STARLINK-3397,1 51115U 22005M   22227.66579025 -.00000207  00000-0  50679-5 0  9999,2 51115  53.2174  14.1224 0001543  68.0987 292.0169 15.08835726 32315,6917.893,95.438,540.826,538.691,0.0
51115.0,STARLINK-3397,PAYLOAD,2022-08-16 11:03:21,15.08846173,0.0001621999999999,53.2171,10.5545,67.0601,293.0562,0.00030494,4.569e-05,0.0,0 STARLINK-3397,1 51115U 22005M   22228.46066806  .00004569  00000-0  30494-3 0  9991,2 51115  53.2171  10.5545 0001622  67.0601 293.0562 15.08846173 33540,6917.861999999999,95.437,540.849,538.604,0.0
51115.0,STARLINK-3397,PAYLOAD,2022-08-16 12:38:44,15.08848376,0.0001641,53.2171,10.2571,66.7287,293.3878,0.0003562,5.387e-05,0.0,0 STARLINK-3397,1 51115U 22005M   22228.52690772  .00005387  00000-0  35620-3 0  9998,2 51115  53.2171  10.2571 0001641  66.7287 293.3878 15.08848376 32441,6917.855,95.437,540.855,538.585,0.0
